satname,norad_id,inclination_deg,eccentricity,mean_motion_rev_per_day,perigee_km,apogee_km,l1,l2
STARLINK-1168,45072,53.0535,0.0001389,15.06403672,546.2383744585031,548.1622331615026,1 45072U 20006AE  25301.82941650  .00001619  00000+0  12758-3 0  9994,2 45072  53.0535 138.5631 0001389  87.0541 273.0607 15.06403672316867
STARLINK-1172,45074,53.053,0.0001262,15.06395155,546.3524263432791,548.1003880672579,1 45074U 20006AG  25302.50394388  .00002195  00000+0  16625-3 0  9999,2 45074  53.0530 135.5358 0001262  84.6940 275.4193 15.06395155316966
STARLINK-1153,45080,53.052,0.0001425,15.06402782,546.2161705675899,548.1898924765728,1 45080U 20006AN  25301.81837703  .00007947  00000+0  55178-3 0  9998,2 45080  53.0520 138.6131 0001425  85.1060 275.0092 15.06402782316863
STARLINK-1151,45081,53.0528,0.0001505,15.06389343,546.2019504272903,548.2864901746007,1 45081U 20006AP  25302.53343523 -.00002446  00000+0 -14540-3 0  9990,2 45081  53.0528 135.4771 0001505  91.2804 268.8357 15.06389343316973
STARLINK-1190,45083,53.0401,0.0002802,15.89022379,303.14997301564745,306.895215652311,1 45083U 20006AR  25302.58336806  .00322896  00000+0  10682-2 0  9997,2 45083  53.0401  87.0681 0002802 247.0442 155.5851 15.89022379  5999
STARLINK-1173,45084,53.0232,0.0002761,16.40998938,161.340492995374,164.95258976692458,1 45084U 20006AS  25302.73493832  .08690490  12381-4  56066-3 0  9991,2 45084  53.0232  45.0908 0002761 259.2452 100.8284 16.40998938318258
STARLINK-1185,45087,53.054,0.0001356,15.06404031,546.2601279421988,548.138279120596,1 45087U 20006AV  25302.50946588  .00000663  00000+0  63381-4 0  9998,2 45087  53.0540 115.5064 0001356  89.5468 270.5677 15.06404031317256
STARLINK-1183,45088,53.0539,0.0001267,15.063975,546.3417774557229,548.0966627218941,1 45088U 20006AW  25302.19985495  .00001351  00000+0  10959-3 0  9991,2 45088  53.0539 116.8996 0001267  89.6267 270.4867 15.06397500317209
STARLINK-1176,45090,53.0385,0.0008753,16.15405364,226.27041724539686,237.84222167043936,1 45090U 20006AY  25302.75335976  .01170773  96730-3  84239-3 0  9996,2 45090  53.0385  44.0492 0008753 358.3743   1.7263 16.15405364318278
STARLINK-1142,45093,53.0342,0.0003886,15.60709422,382.9782690592165,388.235050631647,1 45093U 20006BB  25302.58336806  .00159103  00000+0  18498-2 0  9990,2 45093  53.0342  49.1998 0003886 336.7748 275.4212 15.60709422  5928
STARLINK-1152,45096,53.0515,0.0007529,15.23762132,489.33061720145633,499.6794415693039,1 45096U 20006BE  25302.16541459  .00077917  00000+0  31760-2 0  9998,2 45096  53.0515  99.5544 0007529 154.0228 206.1148 15.23762132317449
STARLINK-1184,45098,53.0533,0.0001426,15.06404742,546.2094717974924,548.1845770612599,1 45098U 20006BG  25302.21459493  .00001090  00000+0  92044-4 0  9995,2 45098  53.0533 116.8326 0001426  99.1100 261.0050 15.06404742317207
STARLINK-1193,45100,53.0539,0.0001325,15.06398664,546.298043362417,548.1332618153538,1 45100U 20006BJ  25302.21090761  .00000283  00000+0  37919-4 0  9991,2 45100  53.0539 116.8473 0001325  90.7009 269.4131 15.06398664317200
STARLINK-1143,45179,53.0528,0.0008404,15.40226785,439.70489395978166,451.1739612192732,1 45179U 20012B   25302.11691070  .00103491  00000+0  25090-2 0  9993,2 45179  53.0528 241.5330 0008404  44.9047 315.2635 15.40226785315513
STARLINK-1202,45183,53.0546,0.0001558,15.06412636,546.093867417284,548.2517939605259,1 45183U 20012F   25302.20721634  .00003509  00000+0  25425-3 0  9990,2 45183  53.0546 276.8693 0001558  91.7130 268.4037 15.06412636315022
STARLINK-1216,45185,53.0552,0.0001468,15.06408478,546.1689368573016,548.2022115650898,1 45185U 20012H   25302.19984811  .00002207  00000+0  16697-3 0  9993,2 45185  53.0552 276.9014 0001468  84.2774 275.8382 15.06408478314966
STARLINK-1225,45187,53.0533,0.0001172,15.06408828,546.3728538418964,547.9961492018538,1 45187U 20012K   25302.21827122  .00003893  00000+0  28005-3 0  9997,2 45187  53.0533 276.8170 0001172  88.6831 271.4292 15.06408828315011
STARLINK-1230,45189,53.054,0.0001456,15.06408382,546.1775414249823,548.19419544427,1 45189U 20012M   25302.22196126  .00003216  00000+0  23467-3 0  9999,2 45189  53.0540 276.8026 0001456  92.1570 267.9586 15.06408382312249
STARLINK-1234,45190,53.0536,0.0002441,15.35696902,457.1823783008431,460.5201959826254,1 45190U 20012N   25302.52638205  .00076028  00000+0  21478-2 0  9993,2 45190  53.0536 232.8475 0002441  91.7976 268.3305 15.35696902315567
STARLINK-1269,45197,53.0539,0.0001364,15.06412246,546.2294135423399,548.1186383902232,1 45197U 20012V   25302.23301033  .00001697  00000+0  13276-3 0  9992,2 45197  53.0539 276.7544 0001364  93.6269 266.4876 15.06412246314993
STARLINK-1154,45198,53.055,0.0001315,15.0643232,546.2018332545103,548.0231738739476,1 45198U 20012W   25302.15744475 -.00002829  00000+0 -17092-3 0  9995,2 45198  53.0550 257.0901 0001315  94.7573 265.3566 15.06432320315239
STARLINK-1199,45201,53.0535,0.0001424,15.06430467,546.1320262071013,548.1043388830913,1 45201U 20012Z   25302.16849985  .00008447  00000+0  58479-3 0  9997,2 45201  53.0535 257.0397 0001424  89.7383 270.3769 15.06430467315297
STARLINK-1209,45206,53.0534,0.0002004,15.30151987,473.9849908470396,476.73187181591766,1 45206U 20012AE  25302.51262626  .00014071  00000+0  48698-3 0  9994,2 45206  53.0534 233.4317 0002004  92.4425 267.6804 15.30151987314702
STARLINK-1210,45207,53.0234,0.0012661,15.55872174,391.0371953574413,408.1998278639421,1 45207U 20012AF  25301.87038705  .00145456  00000+0  20267-2 0  9995,2 45207  53.0234 199.1515 0012661  57.7197 302.5038 15.55872174316084
STARLINK-1231,45212,53.0502,0.0006342,15.1210389,525.4039283266193,534.1659365056958,1 45212U 20012AL  25302.19296971  .00048732  00000+0  27947-2 0  9999,2 45212  53.0502 255.3629 0006342  36.9625 323.1802 15.12103890315276
STARLINK-1271,45217,53.0541,0.0001895,15.06423542,545.8270661596598,548.4517459175486,1 45217U 20012AR  25302.15375877  .00002884  00000+0  21232-3 0  9993,2 45217  53.0541 257.1062 0001895  88.6665 271.4541 15.06423542315290
STARLINK-1191,45222,53.0534,0.000138,15.0642407,546.1820999165502,548.0934757579926,1 45222U 20012AW  25302.09664783  .00015651  00000+0  10665-2 0  9992,2 45222  53.0534 237.3625 0001380  90.9897 269.1250 15.06424070315563
STARLINK-1212,45223,53.0536,0.0001241,15.0640424,546.3391288360635,548.0579971227953,1 45223U 20012AX  25302.11515192  .00002905  00000+0  21379-3 0  9998,2 45223  53.0536 237.9353 0001241  90.2850 269.8281 15.06404240315566
STARLINK-1215,45225,53.0538,0.0001398,15.06424519,546.1682585309645,548.1045649768903,1 45225U 20012AZ  25302.13718493  .00006485  00000+0  45357-3 0  9990,2 45225  53.0538 237.1800 0001398  91.6295 268.4855 15.06424519315529
STARLINK-1221,45227,53.0674,0.0002012,15.36647084,454.6575382585688,457.40760809481617,1 45227U 20012BB  25302.36856948  .00018678  00000+0  52374-3 0  9999,2 45227  53.0674 169.4225 0002012 347.5030  12.5923 15.36647084316481
STARLINK-1222,45228,53.0541,0.0001343,15.06419315,546.2222945164995,548.0824272388309,1 45228U 20012BC  25302.10401133  .00004906  00000+0  34784-3 0  9998,2 45228  53.0541 237.3287 0001343  91.6967 268.4176 15.06419315315459
STARLINK-1226,45229,53.0532,0.0001329,15.06394565,546.3078344434389,548.1485965177144,1 45229U 20012BD  25302.13349411  .00016785  00000+0  11432-2 0  9994,2 45229  53.0532 237.1959 0001329  93.7318 266.3823 15.06394565315467
STARLINK-1227,45230,53.0535,0.0001545,15.06411213,546.1072308787652,548.2471529640688,1 45230U 20012BE  25302.52789463 -.00000035  00000+0  16573-4 0  9999,2 45230  53.0535 235.4278 0001545  92.5812 267.5354 15.06411213315645
STARLINK-1246,45235,53.0546,0.0001412,15.06401409,546.2293809529501,548.1850981662019,1 45235U 20012BK  25302.14456522  .00003384  00000+0  24595-3 0  9990,2 45235  53.0546 277.1474 0001412  92.2049 267.9102 15.06401409315039
STARLINK-1270,45237,53.0533,0.0001387,15.06436835,546.1381360819623,548.0591964557852,1 45237U 20012BM  25302.14824825  .00013014  00000+0  89009-3 0  9999,2 45237  53.0533 237.1307 0001387 104.1743 255.9401 15.06436835315572
STARLINK-1279,45360,53.0541,0.0001572,15.3358511,464.0505764355685,466.2020984288574,1 45360U 20019A   25302.49690014  .00058136  00000+0  17632-2 0  9998,2 45360  53.0541   3.3773 0001572  23.3974 336.7098 15.33585110310398
STARLINK-1301,45361,53.0535,0.0001482,15.36051062,456.78724622325444,458.81341804849944,1 45361U 20019B   25302.46329339  .00076894  00000+0  21475-2 0  9996,2 45361  53.0535  13.2999 0001482  32.1331 327.9761 15.36051062310269
STARLINK-1306,45362,53.05,0.0006405,15.68471966,358.95398759113414,367.58973234075165,1 45362U 20019C   25302.58336806  .00200693  00000+0  17049-2 0  9995,2 45362  53.0500   3.3585 0006405 294.8136 256.8320 15.68471966  5797
STARLINK-1262,45366,53.0546,0.0001142,15.06443021,546.2888481592909,547.8705676553773,1 45366U 20019G   25302.52418862 -.00004113  00000+0 -25706-3 0  9997,2 45366  53.0546  35.4398 0001142  82.5002 277.6117 15.06443021309960
STARLINK-1273,45367,53.0544,0.0001236,15.06412747,546.3165222416446,548.0284587476945,1 45367U 20019H   25302.54630934  .00001326  00000+0  10788-3 0  9991,2 45367  53.0544  35.3428 0001236  89.7121 270.4010 15.06412747309961
STARLINK-1276,45368,53.0547,0.0002009,15.06350374,545.9723255741092,548.7549917387569,1 45368U 20019J   25302.51685822  .00033542  00000+0  22630-2 0  9998,2 45368  53.0547  35.4785 0002009  83.8785 276.2433 15.06350374309962
STARLINK-1277,45369,53.0558,0.0001332,15.06407947,546.2647484512736,548.1096548185897,1 45369U 20019K   25302.50952859  .00002045  00000+0  15613-3 0  9993,2 45369  53.0558  36.1371 0001332 121.0628 239.0492 15.06407947309953
STARLINK-1281,45370,53.0568,0.0001434,15.06403312,546.2083136263045,548.1945006814767,1 45370U 20019L   25302.50577641  .00000968  00000+0  83845-4 0  9992,2 45370  53.0568  35.5282 0001434  99.6889 260.4262 15.06403312309968
